CSS (TIANHE)            
1 48274U 21035A   24124.38373502  .00043733  00000+0  46904-3 0  9995
2 48274  41.4690 356.8095 0004031 285.9099  74.1296 15.63002666172089
